norad_id,name,regime,epoch,line1,line2,inclination,eccentricity,mean_motion,raan,arg_pericenter,mean_anomaly
19751,COSMOS 1989 (ETALON 1),NSO,02235.41828717,1 19751U 89001C   02235.41828717 -.00000082 +00000-0 +00000-0 0 0829\,2 19751 066.0267 009.6093 0013689 230.6236 129.2515 02.1315544810602,66.0267,0.0013689,2.13155448,9.6093,230.6236,129.2515
19751,COSMOS 1989 (ETALON 1),NSO,02235.88743644,1 19751U 89001C   02235.88743644 -.00000080 +00000-0 +00000-0 0 0830\,2 19751 066.0268 009.5937 0013689 230.6206 129.2572 02.1315544710603,66.0268,0.0013689,2.13155447,9.5937,230.6206,129.2572
19751,COSMOS 1989 (ETALON 1),NSO,02236.82573099,1 19751U 89001C   02236.82573099 -.00000075 +00000-0 +00000-0 0 0828\,2 19751 066.0267 009.5625 0013687 230.6410 129.2392 02.1315545110605,66.0267,0.0013687,2.13155451,9.5625,230.641,129.2392
19751,COSMOS 1989 (ETALON 1),NSO,02238.23317236,1 19751U 89001C   02238.23317236 -.00000068 +00000-0 +00000-0 0 0830\,2 19751 066.0266 009.5156 0013677 230.7428 129.1415 02.1315547210608,66.0266,0.0013677,2.13155472,9.5156,230.7428,129.1415
19751,COSMOS 1989 (ETALON 1),NSO,02238.70231951,1 19751U 89001C   02238.70231951 -.00000066 +00000-0 +00000-0 0 0831\,2 19751 066.0271 009.4992 0013702 230.7250 129.1604 02.1315546710609,66.0271,0.0013702,2.13155467,9.4992,230.725,129.1604
19751,COSMOS 1989 (ETALON 1),NSO,02240.10976142,1 19751U 89001C   02240.10976142 -.00000060  00000-0  00000+0 0  8297\,2 19751 066.0272 009.4524 0013710 230.7756 129.1135 02.13155467106120,66.0272,0.001371,2.13155467,9.4524,230.7756,129.1135
19751,COSMOS 1989 (ETALON 1),NSO,02240.57890815,1 19751U 89001C   02240.57890815 -.00000058 +00000-0 +00000-0 0 08300\,2 19751 066.0270 009.4367 0013721 230.7143 129.1763 02.13155477106134,66.027,0.0013721,2.13155477,9.4367,230.7143,129.1763
19751,COSMOS 1989 (ETALON 1),NSO,02241.04805398,1 19751U 89001C   02241.04805398 -.00000057 +00000-0 +00000-0 0 0831\,2 19751 066.0270 009.4218 0013713 230.6679 129.2242 02.1315549610614,66.027,0.0013713,2.13155496,9.4218,230.6679,129.2242
19751,COSMOS 1989 (ETALON 1),NSO,02241.98634532,1 19751U 89001C   02241.98634532 -.00000055 +00000-0 +00000-0 0 0832\,2 19751 066.0270 009.3901 0013715 230.6194 129.2738 02.1315551110616,66.027,0.0013715,2.13155511,9.3901,230.6194,129.2738
19751,COSMOS 1989 (ETALON 1),NSO,02242.92463564,1 19751U 89001C   02242.92463564 -.00000054  00000-0  00000+0 0  8303\,2 19751 066.0270 009.3589 0013715 230.6061 129.2868 02.13155518106188,66.027,0.0013715,2.13155518,9.3589,230.6061,129.2868
19751,COSMOS 1989 (ETALON 1),NSO,02243.86292589,1 19751U 89001C   02243.86292589 -.00000054 +00000-0 +00000-0 0 0831\,2 19751 066.0267 009.3281 0013712 230.6626 129.2294 02.1315552110620,66.0267,0.0013712,2.13155521,9.3281,230.6626,129.2294
19751,COSMOS 1989 (ETALON 1),NSO,02244.33207099,1 19751U 89001C   02244.33207099 -.00000054 +00000-0 +00000-0 0 0832\,2 19751 066.0265 009.3124 0013705 230.6495 129.2426 02.1315552210621,66.0265,0.0013705,2.13155522,9.3124,230.6495,129.2426
19751,COSMOS 1989 (ETALON 1),NSO,02244.80121528,1 19751U 89001C   02244.80121528 -.00000054 +00000-0 +00000-0 0 0833\,2 19751 066.0263 009.2967 0013714 230.6695 129.2218 02.1315553110622,66.0263,0.0013714,2.13155531,9.2967,230.6695,129.2218
19751,COSMOS 1989 (ETALON 1),NSO,02245.73950408,1 19751U 89001C   02245.73950408 -.00000055  00000-0  00000+0 0  8315\,2 19751 066.0262 009.2655 0013718 230.6916 129.1980 02.13155532106241,66.0262,0.0013718,2.13155532,9.2655,230.6916,129.198
19751,COSMOS 1989 (ETALON 1),NSO,02246.67779299,1 19751U 89001C   02246.67779299 -.00000056 +00000-0 +00000-0 0 0832\,2 19751 066.0263 009.2342 0013733 230.6886 129.2000 02.1315554210626,66.0263,0.0013733,2.13155542,9.2342,230.6886,129.2
19751,COSMOS 1989 (ETALON 1),NSO,02247.61608159,1 19751U 89001C   02247.61608159 -.00000057 +00000-0 +00000-0 0 0833\,2 19751 066.0259 009.2029 0013770 230.6242 129.2647 02.1315557410628,66.0259,0.001377,2.13155574,9.2029,230.6242,129.2647
19751,COSMOS 1989 (ETALON 1),NSO,02248.08522339,1 19751U 89001C   02248.08522339 -.00000057 +00000-0 +00000-0 0 0832\,2 19751 066.0261 009.1872 0013770 230.6150 129.2712 02.1315557710629,66.0261,0.001377,2.13155577,9.1872,230.615,129.2712
19751,COSMOS 1989 (ETALON 1),NSO,02249.49265937,1 19751U 89001C   02249.49265937 -.00000058 +00000-0 +00000-0 0 0834\,2 19751 066.0258 009.1398 0013793 230.6948 129.1927 02.1315562310632,66.0258,0.0013793,2.13155623,9.1398,230.6948,129.1927
19751,COSMOS 1989 (ETALON 1),NSO,02250.43094968,1 19751U 89001C   02250.43094968 -.00000059 +00000-0 +00000-0 0 0833\,2 19751 066.0258 009.1087 0013780 230.7227 129.1639 02.1315562110634,66.0258,0.001378,2.13155621,9.1087,230.7227,129.1639
19751,COSMOS 1989 (ETALON 1),NSO,02250.90009702,1 19751U 89001C   02250.90009702 -.00000059 +00000-0 +00000-0 0 0834\,2 19751 066.0258 009.0931 0013777 230.7349 129.1531 02.1315562510635,66.0258,0.0013777,2.13155625,9.0931,230.7349,129.1531
19751,COSMOS 1989 (ETALON 1),NSO,02252.30753877,1 19751U 89001C   02252.30753877 -.00000061 +00000-0 +00000-0 0 0836\,2 19751 066.0262 009.0464 0013775 230.7833 129.1079 02.1315561710638,66.0262,0.0013775,2.13155617,9.0464,230.7833,129.1079
19751,COSMOS 1989 (ETALON 1),NSO,02253.24583141,1 19751U 89001C   02253.24583141 -.00000064 +00000-0 +00000-0 0 0834\,2 19751 066.0261 009.0151 0013778 230.7739 129.1189 02.1315561910640,66.0261,0.0013778,2.13155619,9.0151,230.7739,129.1189
19751,COSMOS 1989 (ETALON 1),NSO,02254.18412338,1 19751U 89001C   02254.18412338 -.00000067 +00000-0 +00000-0 0 0835\,2 19751 066.0259 008.9838 0013780 230.6870 129.2056 02.1315560210642,66.0259,0.001378,2.13155602,8.9838,230.687,129.2056
19751,COSMOS 1989 (ETALON 1),NSO,02255.59156143,1 19751U 89001C   02255.59156143 -.00000075 +00000-0 +00000-0 0 0835\,2 19751 066.0261 008.9372 0013770 230.7625 129.1310 02.1315560310645,66.0261,0.001377,2.13155603,8.9372,230.7625,129.131
19751,COSMOS 1989 (ETALON 1),NSO,02256.06070664,1 19751U 89001C   02256.06070664 -.00000078 +00000-0 +00000-0 0 0836\,2 19751 066.0261 008.9217 0013759 230.7665 129.1255 02.1315558510646,66.0261,0.0013759,2.13155585,8.9217,230.7665,129.1255
19751,COSMOS 1989 (ETALON 1),NSO,02256.99899785,1 19751U 89001C   02256.99899785 -.00000084 +00000-0 +00000-0 0 0837\,2 19751 066.0257 008.8902 0013763 230.7218 129.1700 02.1315557410648,66.0257,0.0013763,2.13155574,8.8902,230.7218,129.17
19751,COSMOS 1989 (ETALON 1),NSO,02257.93728764,1 19751U 89001C   02257.93728764 -.00000090  00000-0  00000+0 0  8362\,2 19751 066.0258 008.8591 0013755 230.8310 129.0588 02.13155563106507,66.0258,0.0013755,2.13155563,8.8591,230.831,129.0588
19751,COSMOS 1989 (ETALON 1),NSO,02258.40643355,1 19751U 89001C   02258.40643355 -.00000092 +00000-0 +00000-0 0 0837\,2 19751 066.0258 008.8436 0013752 230.8206 129.0688 02.1315555310651,66.0258,0.0013752,2.13155553,8.8436,230.8206,129.0688
19751,COSMOS 1989 (ETALON 1),NSO,02259.34472433,1 19751U 89001C   02259.34472433 -.00000096 +00000-0 +00000-0 0 0838\,2 19751 066.0256 008.8123 0013748 230.8050 129.0833 02.1315553910653,66.0256,0.0013748,2.13155539,8.8123,230.805,129.0833
19751,COSMOS 1989 (ETALON 1),NSO,02260.28301641,1 19751U 89001C   02260.28301641 -.00000097 +00000-0 +00000-0 0 0837\,2 19751 066.0257 008.7811 0013751 230.8052 129.0835 02.1315553210655,66.0257,0.0013751,2.13155532,8.7811,230.8052,129.0835
19751,COSMOS 1989 (ETALON 1),NSO,02261.22130859,1 19751U 89001C   02261.22130859 -.00000097 +00000-0 +00000-0 0 0839\,2 19751 066.0257 008.7500 0013754 230.8223 129.0667 02.1315552510657,66.0257,0.0013754,2.13155525,8.75,230.8223,129.0667
19751,COSMOS 1989 (ETALON 1),NSO,02262.15960241,1 19751U 89001C   02262.15960241 -.00000094 +00000-0 +00000-0 0 0840\,2 19751 066.0255 008.7187 0013766 230.7670 129.1239 02.1315551810659,66.0255,0.0013766,2.13155518,8.7187,230.767,129.1239
19751,COSMOS 1989 (ETALON 1),NSO,02262.15960270,1 19751U 89001C   02262.15960270 -.00000094 +00000-0 +00000-0 0 0841\,2 19751 066.0249 008.7185 0013787 230.7020 129.1895 02.1315550910659,66.0249,0.0013787,2.13155509,8.7185,230.702,129.1895
19751,COSMOS 1989 (ETALON 1),NSO,02263.09789640,1 19751U 89001C   02263.09789640 -.00000091  00000-0  00000+0 0  8389\,2 19751 066.0260 008.6880 0013784 230.8622 129.0287 02.13155479106611,66.026,0.0013784,2.13155479,8.688,230.8622,129.0287
19751,COSMOS 1989 (ETALON 1),NSO,02264.03619460,1 19751U 89001C   02264.03619460 -.00000086 +00000-0 +00000-0 0 0839\,2 19751 066.0259 008.6567 0013807 230.8107 129.0848 02.1315545810663,66.0259,0.0013807,2.13155458,8.6567,230.8107,129.0848
19751,COSMOS 1989 (ETALON 1),NSO,02265.44363911,1 19751U 89001C   02265.44363911 -.00000078 +00000-0 +00000-0 0 0839\,2 19751 066.0260 008.6101 0013802 230.8825 129.0183 02.1315545010666,66.026,0.0013802,2.1315545,8.6101,230.8825,129.0183
19751,COSMOS 1989 (ETALON 1),NSO,02265.91278754,1 19751U 89001C   02265.91278754 -.00000076 +00000-0 +00000-0 0 0840\,2 19751 066.0261 008.5945 0013806 230.8684 129.0341 02.1315544210667,66.0261,0.0013806,2.13155442,8.5945,230.8684,129.0341
19751,COSMOS 1989 (ETALON 1),NSO,02267.32023040,1 19751U 89001C   02267.32023040 -.00000070 +00000-0 +00000-0 0 0842\,2 19751 066.0263 008.5478 0013802 230.8702 129.0381 02.1315546610670,66.0263,0.0013802,2.13155466,8.5478,230.8702,129.0381
19751,COSMOS 1989 (ETALON 1),NSO,02267.78937719,1 19751U 89001C   02267.78937719 -.00000068 +00000-0 +00000-0 0 0840\,2 19751 066.0261 008.5323 0013801 230.8699 129.0394 02.1315546810671,66.0261,0.0013801,2.13155468,8.5323,230.8699,129.0394
19751,COSMOS 1989 (ETALON 1),NSO,02269.19681821,1 19751U 89001C   02269.19681821 -.00000065 +00000-0 +00000-0 0 0841\,2 19751 066.0262 008.4857 0013805 230.8730 129.0400 02.1315548210674,66.0262,0.0013805,2.13155482,8.4857,230.873,129.04
19751,COSMOS 1989 (ETALON 1),NSO,02270.13510992,1 19751U 89001C   02270.13510992 -.00000063  00000-0  00000+0 0  8417\,2 19751 066.0265 008.4552 0013752 230.9313 128.9885 02.13155735106766,66.0265,0.0013752,2.13155735,8.4552,230.9313,128.9885
